ARIANE 5 R/B            
1 28499U 04049H   26108.44652479  .00000636  00000+0  76775-4 0  9997
2 28499  98.2681 278.4078 0083224 221.5683 137.9185 14.85340686151691
CZ-2D R/B               
1 28738U 05024B   26108.61977536  .00041423  00000+0  44296-3 0  9991
2 28738  97.3542 125.3371 0003666 191.2621 168.8556 15.63777768146013
ALOS (DAICHI)           
1 28931U 06002A   26108.46235670  .00000737  00000+0  13141-3 0  9990
2 28931  98.1280  64.2388 0001678 110.8502 249.2883 14.69924042 79321
H-2A R/B                
1 28932U 06002B   26108.84866216  .00007408  00000+0  36277-3 0  9996
2 28932  98.2488 259.3725 0052606 104.9925 255.7138 15.17278886100529
RESURS-DK 1             
1 29228U 06021A   26108.80166086  .00001386  00000+0  84548-4 0  9994
2 29228  69.9297 133.2482 0002666 355.7813   4.3330 15.12958364 93595
CZ-4B R/B               
1 29507U 06046C   26108.84286690  .00003482  00000+0  17562-3 0  9999
2 29507  97.5513 153.6370 0034394 126.9474 233.4918 15.17295430 66139
CZ-2C R/B               
1 31114U 07010B   26108.60072713  .00000069  00000+0  50514-4 0  9994
2 31114  98.4026 219.8876 0059147 177.0485 183.1053 14.20260427985382
COSMO-SKYMED 1          
1 31598U 07023A   26108.84468402  .00001419  00000+0  12920-3 0  9992
2 31598  97.8874 300.2076 0001191  88.5730 271.5627 14.96809428 20915
COSMOS 2428             
1 31792U 07029A   26108.46307669 -.00000156  00000+0 -57824-4 0  9991
2 31792  70.9396 119.8624 0009400 234.2424 125.7823 14.12947472969714
SL-16 R/B               
1 31793U 07029B   26108.71727472  .00000030  00000+0  40116-4 0  9993
2 31793  70.9732  88.2415 0002648 270.3101 129.3735 14.14841658971037
KORONAS-FOTON           
1 33504U 09003A   26108.62499105  .00013160  00000+0  28342-3 0  9992
2 33504  82.4307 234.3217 0010444  17.4879 342.6726 15.44407869951904
CZ-2C R/B               
1 37731U 11030B   26108.62251029  .00000645  00000+0  87737-4 0  9990
2 37731  97.8609  65.1086 0051414 219.1721 314.1686 14.81343566796008
H-2A R/B                
1 38341U 12025E   26108.47715498  .00001729  00000+0  15972-3 0  9996
2 38341  98.4795  78.7346 0044097 180.5525 179.5652 14.95415823754168
