[
    {
        "OBJECT_NAME": "ARIANE 5 R/B",
        "OBJECT_ID": "2004-049H",
        "EPOCH": "2026-04-18T10:42:59.741856",
        "MEAN_MOTION": 14.85340686,
        "ECCENTRICITY": 0.00832243,
        "INCLINATION": 98.2681,
        "RA_OF_ASC_NODE": 278.4078,
        "ARG_OF_PERICENTER": 221.5683,
        "MEAN_ANOMALY": 137.9185,
        "EPHEMERIS_TYPE": 0,
        "CLASSIFICATION_TYPE": "U",
        "NORAD_CAT_ID": 28499,
        "ELEMENT_SET_NO": 999,
        "REV_AT_EPOCH": 15169,
        "BSTAR": 7.6775139e-05,
        "MEAN_MOTION_DOT": 6.36e-06,
        "MEAN_MOTION_DDOT": 0
    },
    {
        "OBJECT_NAME": "CZ-2D R/B",
        "OBJECT_ID": "2005-024B",
        "EPOCH": "2026-04-18T14:52:28.591104",
        "MEAN_MOTION": 15.63777768,
        "ECCENTRICITY": 0.0003666,
        "INCLINATION": 97.3542,
        "RA_OF_ASC_NODE": 125.3371,
        "ARG_OF_PERICENTER": 191.2621,
        "MEAN_ANOMALY": 168.8556,
        "EPHEMERIS_TYPE": 0,
        "CLASSIFICATION_TYPE": "U",
        "NORAD_CAT_ID": 28738,
        "ELEMENT_SET_NO": 999,
        "REV_AT_EPOCH": 14601,
        "BSTAR": 0.00044296,
        "MEAN_MOTION_DOT": 0.00041423,
        "MEAN_MOTION_DDOT": 0
    },
    {
        "OBJECT_NAME": "ALOS (DAICHI)",
        "OBJECT_ID": "2006-002A",
        "EPOCH": "2026-04-18T11:05:47.618880",
        "MEAN_MOTION": 14.69924042,
        "ECCENTRICITY": 0.0001678,
        "INCLINATION": 98.128,
        "RA_OF_ASC_NODE": 64.2388,
        "ARG_OF_PERICENTER": 110.8502,
        "MEAN_ANOMALY": 249.2883,
        "EPHEMERIS_TYPE": 0,
        "CLASSIFICATION_TYPE": "U",
        "NORAD_CAT_ID": 28931,
        "ELEMENT_SET_NO": 999,
        "REV_AT_EPOCH": 7932,
        "BSTAR": 0.00013140516,
        "MEAN_MOTION_DOT": 7.37e-06,
        "MEAN_MOTION_DDOT": 0
    },
    {
        "OBJECT_NAME": "H-2A R/B",
        "OBJECT_ID": "2006-002B",
        "EPOCH": "2026-04-18T20:22:04.410624",
        "MEAN_MOTION": 15.17278886,
        "ECCENTRICITY": 0.0052606,
        "INCLINATION": 98.2488,
        "RA_OF_ASC_NODE": 259.3725,
        "ARG_OF_PERICENTER": 104.9925,
        "MEAN_ANOMALY": 255.7138,
        "EPHEMERIS_TYPE": 0,
        "CLASSIFICATION_TYPE": "U",
        "NORAD_CAT_ID": 28932,
        "ELEMENT_SET_NO": 999,
        "REV_AT_EPOCH": 10052,
        "BSTAR": 0.00036277,
        "MEAN_MOTION_DOT": 7.408e-05,
        "MEAN_MOTION_DDOT": 0
    },
    {
        "OBJECT_NAME": "RESURS-DK 1",
        "OBJECT_ID": "2006-021A",
        "EPOCH": "2026-04-18T19:14:23.498304",
        "MEAN_MOTION": 15.12958364,
        "ECCENTRICITY": 0.0002666,
        "INCLINATION": 69.9297,
        "RA_OF_ASC_NODE": 133.2482,
        "ARG_OF_PERICENTER": 355.7813,
        "MEAN_ANOMALY": 4.333,
        "EPHEMERIS_TYPE": 0,
        "CLASSIFICATION_TYPE": "U",
        "NORAD_CAT_ID": 29228,
        "ELEMENT_SET_NO": 999,
        "REV_AT_EPOCH": 9359,
        "BSTAR": 8.4548e-05,
        "MEAN_MOTION_DOT": 1.386e-05,
        "MEAN_MOTION_DDOT": 0
    },
    {
        "OBJECT_NAME": "CZ-4B R/B",
        "OBJECT_ID": "2006-046C",
        "EPOCH": "2026-04-18T20:13:43.700160",
        "MEAN_MOTION": 15.1729543,
        "ECCENTRICITY": 0.0034394,
        "INCLINATION": 97.5513,
        "RA_OF_ASC_NODE": 153.637,
        "ARG_OF_PERICENTER": 126.9474,
        "MEAN_ANOMALY": 233.4918,
        "EPHEMERIS_TYPE": 0,
        "CLASSIFICATION_TYPE": "U",
        "NORAD_CAT_ID": 29507,
        "ELEMENT_SET_NO": 999,
        "REV_AT_EPOCH": 6613,
        "BSTAR": 0.00017562,
        "MEAN_MOTION_DOT": 3.482e-05,
        "MEAN_MOTION_DDOT": 0
    },
    {
        "OBJECT_NAME": "CZ-2C R/B",
        "OBJECT_ID": "2007-010B",
        "EPOCH": "2026-04-18T14:25:02.824032",
        "MEAN_MOTION": 14.20260427,
        "ECCENTRICITY": 0.0059147,
        "INCLINATION": 98.4026,
        "RA_OF_ASC_NODE": 219.8876,
        "ARG_OF_PERICENTER": 177.0485,
        "MEAN_ANOMALY": 183.1053,
        "EPHEMERIS_TYPE": 0,
        "CLASSIFICATION_TYPE": "U",
        "NORAD_CAT_ID": 31114,
        "ELEMENT_SET_NO": 999,
        "REV_AT_EPOCH": 98538,
        "BSTAR": 5.0514e-05,
        "MEAN_MOTION_DOT": 6.9e-07,
        "MEAN_MOTION_DDOT": 0
    },
    {
        "OBJECT_NAME": "COSMO-SKYMED 1",
        "OBJECT_ID": "2007-023A",
        "EPOCH": "2026-04-18T20:16:20.699328",
        "MEAN_MOTION": 14.96809428,
        "ECCENTRICITY": 0.0001191,
        "INCLINATION": 97.8874,
        "RA_OF_ASC_NODE": 300.2076,
        "ARG_OF_PERICENTER": 88.573,
        "MEAN_ANOMALY": 271.5627,
        "EPHEMERIS_TYPE": 0,
        "CLASSIFICATION_TYPE": "U",
        "NORAD_CAT_ID": 31598,
        "ELEMENT_SET_NO": 999,
        "REV_AT_EPOCH": 2091,
        "BSTAR": 0.0001292,
        "MEAN_MOTION_DOT": 1.419e-05,
        "MEAN_MOTION_DDOT": 0
    },
    {
        "OBJECT_NAME": "COSMOS 2428",
        "OBJECT_ID": "2007-029A",
        "EPOCH": "2026-04-18T11:06:49.826016",
        "MEAN_MOTION": 14.12947472,
        "ECCENTRICITY": 0.00094003,
        "INCLINATION": 70.9396,
        "RA_OF_ASC_NODE": 119.8624,
        "ARG_OF_PERICENTER": 234.2424,
        "MEAN_ANOMALY": 125.7823,
        "EPHEMERIS_TYPE": 0,
        "CLASSIFICATION_TYPE": "U",
        "NORAD_CAT_ID": 31792,
        "ELEMENT_SET_NO": 999,
        "REV_AT_EPOCH": 96971,
        "BSTAR": -5.7824106e-05,
        "MEAN_MOTION_DOT": -1.56e-06,
        "MEAN_MOTION_DDOT": 0
    },
    {
        "OBJECT_NAME": "SL-16 R/B",
        "OBJECT_ID": "2007-029B",
        "EPOCH": "2026-04-18T17:12:52.535808",
        "MEAN_MOTION": 14.14841658,
        "ECCENTRICITY": 0.0002648,
        "INCLINATION": 70.9732,
        "RA_OF_ASC_NODE": 88.2415,
        "ARG_OF_PERICENTER": 270.3101,
        "MEAN_ANOMALY": 129.3735,
        "EPHEMERIS_TYPE": 0,
        "CLASSIFICATION_TYPE": "U",
        "NORAD_CAT_ID": 31793,
        "ELEMENT_SET_NO": 999,
        "REV_AT_EPOCH": 97103,
        "BSTAR": 4.0116e-05,
        "MEAN_MOTION_DOT": 3e-07,
        "MEAN_MOTION_DDOT": 0
    },
    {
        "OBJECT_NAME": "KORONAS-FOTON",
        "OBJECT_ID": "2009-003A",
        "EPOCH": "2026-04-18T14:59:59.226720",
        "MEAN_MOTION": 15.44407869,
        "ECCENTRICITY": 0.0010444,
        "INCLINATION": 82.4307,
        "RA_OF_ASC_NODE": 234.3217,
        "ARG_OF_PERICENTER": 17.4879,
        "MEAN_ANOMALY": 342.6726,
        "EPHEMERIS_TYPE": 0,
        "CLASSIFICATION_TYPE": "U",
        "NORAD_CAT_ID": 33504,
        "ELEMENT_SET_NO": 999,
        "REV_AT_EPOCH": 95190,
        "BSTAR": 0.00028342,
        "MEAN_MOTION_DOT": 0.0001316,
        "MEAN_MOTION_DDOT": 0
    },
    {
        "OBJECT_NAME": "CZ-2C R/B",
        "OBJECT_ID": "2011-030B",
        "EPOCH": "2026-04-18T14:56:24.889056",
        "MEAN_MOTION": 14.81343566,
        "ECCENTRICITY": 0.0051414,
        "INCLINATION": 97.8609,
        "RA_OF_ASC_NODE": 65.1086,
        "ARG_OF_PERICENTER": 219.1721,
        "MEAN_ANOMALY": 314.1686,
        "EPHEMERIS_TYPE": 0,
        "CLASSIFICATION_TYPE": "U",
        "NORAD_CAT_ID": 37731,
        "ELEMENT_SET_NO": 999,
        "REV_AT_EPOCH": 79600,
        "BSTAR": 8.7737e-05,
        "MEAN_MOTION_DOT": 6.45e-06,
        "MEAN_MOTION_DDOT": 0
    },
    {
        "OBJECT_NAME": "H-2A R/B",
        "OBJECT_ID": "2012-025E",
        "EPOCH": "2026-04-18T11:27:06.190272",
        "MEAN_MOTION": 14.95415823,
        "ECCENTRICITY": 0.00440971,
        "INCLINATION": 98.4795,
        "RA_OF_ASC_NODE": 78.7346,
        "ARG_OF_PERICENTER": 180.5525,
        "MEAN_ANOMALY": 179.5652,
        "EPHEMERIS_TYPE": 0,
        "CLASSIFICATION_TYPE": "U",
        "NORAD_CAT_ID": 38341,
        "ELEMENT_SET_NO": 999,
        "REV_AT_EPOCH": 75416,
        "BSTAR": 0.00015971948,
        "MEAN_MOTION_DOT": 1.729e-05,
        "MEAN_MOTION_DDOT": 0
    }
]